[
    {
        "OBJECT_NAME": "GSAT0223 (GALILEO 27)",
        "OBJECT_ID": "2021-116A",
        "EPOCH": "2025-03-01T12:10:55.181568",
        "MEAN_MOTION": 1.70474991,
        "ECCENTRICITY": 0.0002338,
        "INCLINATION": 57.2791,
        "RA_OF_ASC_NODE": 354.4336,
        "ARG_OF_PERICENTER": 276.9802,
        "MEAN_ANOMALY": 269.0345,
        "EPHEMERIS_TYPE": 0,
        "CLASSIFICATION_TYPE": "U",
        "NORAD_CAT_ID": 49809,
        "ELEMENT_SET_NO": 999,
        "REV_AT_EPOCH": 2012,
        "BSTAR": 0,
        "MEAN_MOTION_DOT": -8.5e-07,
        "MEAN_MOTION_DDOT": 0
    },
    {
        "OBJECT_NAME": "GSAT0224 (GALILEO 28)",
        "OBJECT_ID": "2021-116B",
        "EPOCH": "2025-02-26T21:55:11.000064",
        "MEAN_MOTION": 1.70475239,
        "ECCENTRICITY": 0.0002005,
        "INCLINATION": 57.2805,
        "RA_OF_ASC_NODE": 354.5024,
        "ARG_OF_PERICENTER": 291.9057,
        "MEAN_ANOMALY": 214.5004,
        "EPHEMERIS_TYPE": 0,
        "CLASSIFICATION_TYPE": "U",
        "NORAD_CAT_ID": 49810,
        "ELEMENT_SET_NO": 999,
        "REV_AT_EPOCH": 2009,
        "BSTAR": 0,
        "MEAN_MOTION_DOT": -8e-07,
        "MEAN_MOTION_DDOT": 0
    },
    {
        "OBJECT_NAME": "GSAT0225 (GALILEO 29)",
        "OBJECT_ID": "2024-079A",
        "EPOCH": "2025-03-02T04:52:38.679744",
        "MEAN_MOTION": 1.70474993,
        "ECCENTRICITY": 0.0002915,
        "INCLINATION": 54.8327,
        "RA_OF_ASC_NODE": 114.2841,
        "ARG_OF_PERICENTER": 232.6017,
        "MEAN_ANOMALY": 124.54,
        "EPHEMERIS_TYPE": 0,
        "CLASSIFICATION_TYPE": "U",
        "NORAD_CAT_ID": 59598,
        "ELEMENT_SET_NO": 999,
        "REV_AT_EPOCH": 526,
        "BSTAR": 0,
        "MEAN_MOTION_DOT": 2.4e-07,
        "MEAN_MOTION_DDOT": 0
    },
    {
        "OBJECT_NAME": "GSAT0227 (GALILEO 30)",
        "OBJECT_ID": "2024-079C",
        "EPOCH": "2025-03-03T13:32:53.798784",
        "MEAN_MOTION": 1.70474832,
        "ECCENTRICITY": 4.98e-05,
        "INCLINATION": 54.8288,
        "RA_OF_ASC_NODE": 114.2457,
        "ARG_OF_PERICENTER": 180.8612,
        "MEAN_ANOMALY": 179.2208,
        "EPHEMERIS_TYPE": 0,
        "CLASSIFICATION_TYPE": "U",
        "NORAD_CAT_ID": 59600,
        "ELEMENT_SET_NO": 999,
        "REV_AT_EPOCH": 534,
        "BSTAR": 0,
        "MEAN_MOTION_DOT": 1.4e-07,
        "MEAN_MOTION_DDOT": 0
    },
    {
        "OBJECT_NAME": "GSAT0232 (GALILEO 32)",
        "OBJECT_ID": "2024-167A",
        "EPOCH": "2025-03-02T22:53:59.233056",
        "MEAN_MOTION": 1.70473687,
        "ECCENTRICITY": 0.0002353,
        "INCLINATION": 55.3452,
        "RA_OF_ASC_NODE": 234.2398,
        "ARG_OF_PERICENTER": 177.2675,
        "MEAN_ANOMALY": 3.4549,
        "EPHEMERIS_TYPE": 0,
        "CLASSIFICATION_TYPE": "U",
        "NORAD_CAT_ID": 61182,
        "ELEMENT_SET_NO": 999,
        "REV_AT_EPOCH": 284,
        "BSTAR": 0,
        "MEAN_MOTION_DOT": 4.8e-07,
        "MEAN_MOTION_DDOT": 0
    },
    {
        "OBJECT_NAME": "GSAT0226 (GALILEO 31)",
        "OBJECT_ID": "2024-167B",
        "EPOCH": "2025-03-03T08:29:36.126240",
        "MEAN_MOTION": 1.70473714,
        "ECCENTRICITY": 0.0002109,
        "INCLINATION": 55.3439,
        "RA_OF_ASC_NODE": 234.2345,
        "ARG_OF_PERICENTER": 117.5447,
        "MEAN_ANOMALY": 61.0528,
        "EPHEMERIS_TYPE": 0,
        "CLASSIFICATION_TYPE": "U",
        "NORAD_CAT_ID": 61183,
        "ELEMENT_SET_NO": 999,
        "REV_AT_EPOCH": 282,
        "BSTAR": 0,
        "MEAN_MOTION_DOT": 4.8e-07,
        "MEAN_MOTION_DDOT": 0
    }
]