GSAT0223 (GALILEO 27)   
1 49809U 21116A   25060.50758312 -.00000085  00000+0  00000+0 0  9997
2 49809  57.2791 354.4336 0002338 276.9802 269.0345  1.70474991 20127
GSAT0224 (GALILEO 28)   
1 49810U 21116B   25057.91332176 -.00000080  00000+0  00000+0 0  9991
2 49810  57.2805 354.5024 0002005 291.9057 214.5004  1.70475239 20099
GSAT0225 (GALILEO 29)   
1 59598U 24079A   25061.20322546  .00000024  00000+0  00000+0 0  9990
2 59598  54.8327 114.2841 0002915 232.6017 124.5400  1.70474993  5269
GSAT0227 (GALILEO 30)   
1 59600U 24079C   25062.56451156  .00000014  00000+0  00000+0 0  9993
2 59600  54.8288 114.2457 0000498 180.8612 179.2208  1.70474832  5345
GSAT0232 (GALILEO 32)   
1 61182U 24167A   25061.95415779  .00000048  00000+0  00000+0 0  9999
2 61182  55.3452 234.2398 0002353 177.2675   3.4549  1.70473687  2845
GSAT0226 (GALILEO 31)   
1 61183U 24167B   25062.35389035  .00000048  00000+0  00000+0 0  9990
2 61183  55.3439 234.2345 0002109 117.5447  61.0528  1.70473714  2822
